     2.10           N: GPS NAV DATA                         RINEX VERSION / TYPE
teqc  2015Jun23                         20151003 10:08:36UTCPGM / RUN BY / DATE
Linux2.6.32-279.el6.x86_64|x86_64|gcc|Win64-MinGW64|=       COMMENT
                                                            END OF HEADER
28 15  7  9  8  0  0.0 4.523633979261D-04 2.614797267597D-12 0.000000000000D+00
    9.200000000000D+01-2.406250000000D+01 3.576934707974D-09-2.406138020415D+00
   -1.292675733566D-06 1.954444462899D-02 9.322538971901D-06 5.153697542191D+03
    3.744000000000D+05 2.440065145493D-07 1.573635594776D+00-2.048909664154D-08
    9.888581166297D-01 2.131562500000D+02-1.661021559415D+00-7.307447241652D-09
   -8.786080261224D-11 1.000000000000D+00 1.852000000000D+03 0.000000000000D+00
    2.000000000000D+00 0.000000000000D+00-1.117587089539D-08 9.200000000000D+01
    3.672180000000D+05 4.000000000000D+00
24 15  7  9  8  0  0.0-1.016538590193D-06-6.821210263297D-13 0.000000000000D+00
    5.700000000000D+01-5.218750000000D+00 5.088426239092D-09 1.132317048064D+00
   -1.117587089539D-07 3.251595655456D-03 4.159286618233D-06 5.153666080475D+03
    3.744000000000D+05 4.284083843231D-08 4.383135169459D-01 7.078051567078D-08
    9.532696382953D-01 2.927187500000D+02 3.507965757883D-01-8.602858343581D-09
   -3.289422731946D-10 1.000000000000D+00 1.852000000000D+03 0.000000000000D+00
    2.800000000000D+00 0.000000000000D+00 2.328306436539D-09 5.700000000000D+01
    3.672180000000D+05 4.000000000000D+00
12 15  7  9  8  0  0.0 3.083655610681D-04 3.296918293927D-12 0.000000000000D+00
    1.070000000000D+02-4.212500000000D+01 3.768014095769D-09-2.535132944749D-01
   -2.246350049973D-06 5.579388234764D-03 9.967014193535D-06 5.153655504227D+03
    3.744000000000D+05 6.146728992462D-08 1.549626380753D+00 6.891787052155D-08
    9.896903897430D-01 2.004062500000D+02 6.324006769294D-01-7.846755420288D-09
   -1.692927660089D-10 1.000000000000D+00 1.852000000000D+03 0.000000000000D+00
    2.800000000000D+00 0.000000000000D+00-1.210719347000D-08 1.070000000000D+02
    3.700680000000D+05 4.000000000000D+00
22 15  7  9  8  0  0.0 3.692819736898D-04 3.865352482535D-12 0.000000000000D+00
    6.300000000000D+01-1.600000000000D+01 5.334865075687D-09-2.179074625673D+00
   -9.145587682724D-07 8.040177985094D-03 1.059845089912D-05 5.153690568924D+03
    3.744000000000D+05 9.685754776001D-08-1.659751708486D+00-2.793967723846D-08
    9.225126897621D-01 1.497187500000D+02-2.041488989948D+00-8.282130698273D-09
   -4.393040130612D-11 1.000000000000D+00 1.852000000000D+03 0.000000000000D+00
    2.000000000000D+00 0.000000000000D+00-1.769512891769D-08 6.300000000000D+01
    3.730680000000D+05 4.000000000000D+00
12 15  7  9  7 59 44.0 3.083674237132D-04 3.296918293927D-12 0.000000000000D+00
    0.000000000000D+00-4.212500000000D+01 3.768014095769D-09-2.558473276053D-01
   -2.248212695122D-06 5.579388700426D-03 9.967014193535D-06 5.153655508041D+03
    3.743840000000D+05 6.146728992462D-08 1.549626502175D+00 6.891787052155D-08
    9.896903941317D-01 2.004062500000D+02 6.324009958456D-01-7.846755420288D-09
   -1.696499237431D-10 1.000000000000D+00 1.852000000000D+03 0.000000000000D+00
    2.000000000000D+00 0.000000000000D+00-1.210719347000D-08 0.000000000000D+00
    3.732060000000D+05 4.000000000000D+00
17 15  7  9 10  0  0.0-1.793587580323D-04-1.591615728103D-12 0.000000000000D+00
    6.100000000000D+01 6.687500000000D+00 4.132672142383D-09-2.224308598353D+00
    3.967434167862D-07 1.012691087089D-02 7.821246981621D-06 5.153787878036D+03
    3.816000000000D+05 8.754432201385D-08 2.594493723375D+00-1.136213541031D-07
    9.731104296354D-01 2.371250000000D+02-2.007918415462D+00-7.752465778460D-09
    3.303709041314D-10 1.000000000000D+00 1.852000000000D+03 0.000000000000D+00
    2.000000000000D+00 0.000000000000D+00-1.071020960808D-08 6.100000000000D+01
    3.744180000000D+05 4.000000000000D+00
18 15  7  9 10  0  0.0 4.158066585660D-04 3.069544618484D-12 0.000000000000D+00
    2.000000000000D+01 2.812500000000D+00 5.402725045184D-09-6.646174509331D-01
    3.166496753693D-07 1.635476283263D-02 1.098029315472D-05 5.153617885590D+03
    3.816000000000D+05-9.872019290924D-08-1.660901860532D+00 2.197921276093D-07
    9.246929628878D-01 1.540000000000D+02-1.950152767599D+00-8.653574741837D-09
   -8.286059433349D-11 1.000000000000D+00 1.852000000000D+03 0.000000000000D+00
    2.000000000000D+00 0.000000000000D+00-1.117587089539D-08 2.000000000000D+01
    3.744180000000D+05 4.000000000000D+00
12 15  7  9  9 59 44.0 3.083911724389D-04 3.296918293927D-12 0.000000000000D+00
    1.900000000000D+01-3.668750000000D+01 3.743727369843D-09 7.943774141279D-01
   -1.879408955574D-06 5.580041441135D-03 9.773299098015D-06 5.153656579971D+03
    3.815840000000D+05-4.656612873077D-08 1.549570623093D+00 9.313225746155D-08
    9.896891345593D-01 2.050000000000D+02 6.323617238098D-01-7.787824394146D-09
   -2.403671551140D-10 1.000000000000D+00 1.852000000000D+03 0.000000000000D+00
    2.000000000000D+00 0.000000000000D+00-1.210719347000D-08 1.900000000000D+01
    3.744180000000D+05 4.000000000000D+00
15 15  7  9 10  0  0.0-2.594795078039D-04-2.160049916711D-12 0.000000000000D+00
    2.400000000000D+01 9.256250000000D+01 5.299506460002D-09-2.888348656001D+00
    4.692003130913D-06 7.190890028141D-03 7.782131433487D-06 5.153673934937D+03
    3.816000000000D+05-3.352761268616D-08-6.410179051745D-01-7.264316082001D-08
    9.329590308142D-01 2.182500000000D+02 3.923235959782D-01-8.355348033783D-09
    2.300095808223D-10 1.000000000000D+00 1.852000000000D+03 0.000000000000D+00
    2.000000000000D+00 0.000000000000D+00-1.071020960808D-08 2.400000000000D+01
    3.744180000000D+05 4.000000000000D+00
13 15  7  9 10  0  0.0-1.305760815740D-04-3.410605131648D-12 0.000000000000D+00
    3.200000000000D+01 8.350000000000D+01 4.437327689652D-09 2.110496714134D+00
    4.237517714500D-06 4.941873601638D-03 6.787478923798D-06 5.153681333542D+03
    3.816000000000D+05 8.195638656616D-08-4.806459101114D-01 4.097819328308D-08
    9.738914611170D-01 2.554687500000D+02 2.100990568588D+00-7.975689362333D-09
    1.360770967287D-10 1.000000000000D+00 1.852000000000D+03 0.000000000000D+00
    2.000000000000D+00 0.000000000000D+00-1.117587089539D-08 3.200000000000D+01
    3.744180000000D+05 4.000000000000D+00
28 15  7  9 10  0  0.0 4.523824900389D-04 2.614797267597D-12 0.000000000000D+00
    9.300000000000D+01-3.421875000000D+01 3.769799884440D-09-1.355853938336D+00
   -1.695007085800D-06 1.954393449705D-02 8.678063750267D-06 5.153702180862D+03
    3.816000000000D+05-7.450580596924D-08 1.573582654697D+00 5.103647708893D-07
    9.888544885929D-01 2.286562500000D+02-1.661147342575D+00-7.866041937935D-09
   -2.525105180766D-10 1.000000000000D+00 1.852000000000D+03 0.000000000000D+00
    2.000000000000D+00 0.000000000000D+00-1.117587089539D-08 9.300000000000D+01
    3.744180000000D+05 4.000000000000D+00
24 15  7  9 10  0  0.0-1.021660864353D-06-6.821210263297D-13 0.000000000000D+00
    5.800000000000D+01-2.312500000000D+00 5.079140138003D-09 2.182584959047D+00
   -1.192092895508D-07 3.251770394854D-03 4.297122359276D-06 5.153665571213D+03
    3.816000000000D+05-1.862645149231D-07 4.382509830497D-01 5.215406417847D-08
    9.532680349371D-01 2.921875000000D+02 3.507188143778D-01-8.493210919183D-09
   -1.789360248322D-10 1.000000000000D+00 1.852000000000D+03 0.000000000000D+00
    2.800000000000D+00 0.000000000000D+00 2.328306436539D-09 5.800000000000D+01
    3.744180000000D+05 4.000000000000D+00
22 15  7  9 10  0  0.0 3.693099133670D-04 3.865352482535D-12 0.000000000000D+00
    6.500000000000D+01-5.718750000000D+00 5.391295997690D-09-1.129090484225D+00
   -9.872019290924D-08 8.040329208598D-03 1.100264489651D-05 5.153687635422D+03
    3.816000000000D+05 7.636845111847D-08-1.659811291677D+00 1.508742570877D-07
    9.225115516119D-01 1.450312500000D+02-2.041295896465D+00-8.436779997180D-09
   -1.100045821324D-10 1.000000000000D+00 1.852000000000D+03 0.000000000000D+00
    2.000000000000D+00 0.000000000000D+00-1.769512891769D-08 6.500000000000D+01
    3.744180000000D+05 4.000000000000D+00
 6 15  7  9 10  0  0.0 1.248484477401D-05 8.299139153678D-12 0.000000000000D+00
    7.000000000000D+01-3.675000000000D+01 4.567333104900D-09-2.336644850271D+00
   -1.819804310799D-06 1.302441814914D-04 6.247311830521D-06 5.153778903961D+03
    3.816000000000D+05-1.862645149231D-08-2.688400168441D+00-1.862645149231D-08
    9.625466762412D-01 2.587500000000D+02-3.128714691068D+00-8.151410967557D-09
    2.035799084918D-11 1.000000000000D+00 1.852000000000D+03 0.000000000000D+00
    2.000000000000D+00 0.000000000000D+00 4.190951585770D-09 7.000000000000D+01
    3.749580000000D+05 4.000000000000D+00
25 15  7  9 10  0  0.0-1.095794141293D-05-4.433786671143D-12 0.000000000000D+00
    3.600000000000D+01-4.115625000000D+01 4.039096816024D-09 1.317840844447D-01
   -2.127140760422D-06 4.665590706281D-03 9.452924132347D-06 5.153664176941D+03
    3.816000000000D+05 2.048909664154D-08 1.502430318939D+00 6.705522537231D-08
    9.781686663884D-01 2.025312500000D+02 7.523929804162D-01-7.984261147953D-09
   -2.467959943295D-10 1.000000000000D+00 1.852000000000D+03 0.000000000000D+00
    2.000000000000D+00 0.000000000000D+00 5.587935447693D-09 3.600000000000D+01
    3.757080000000D+05 4.000000000000D+00
14 15  7  9 10  0  0.0 5.022482946515D-05-2.728484105319D-12 0.000000000000D+00
    3.400000000000D+01 8.812500000000D+01 4.627692761979D-09-2.225929766132D+00
    4.572793841362D-06 8.339246152900D-03 7.277354598045D-06 5.153618982315D+03
    3.816000000000D+05 1.471489667892D-07-5.155221170397D-01 1.676380634308D-08
    9.663606660578D-01 2.396875000000D+02-1.974643675195D+00-8.057121325729D-09
    3.185846989029D-10 1.000000000000D+00 1.852000000000D+03 0.000000000000D+00
    2.000000000000D+00 0.000000000000D+00-9.313225746155D-09 3.400000000000D+01
    3.759180000000D+05 4.000000000000D+00
